CCSDS_OMM_VERS = 2.0
CREATION_DATE  = 
ORIGINATOR     = 

OBJECT_NAME    = STARLINK-37142
OBJECT_ID      = 2026-057C
CENTER_NAME    = EARTH
REF_FRAME      = TEME
TIME_SYSTEM    = UTC
MEAN_ELEMENT_THEORY = SGP/SGP4

EPOCH          = 2026-04-04T06:00:02.000160
MEAN_MOTION    = 15.85285740
ECCENTRICITY   = .00012851
INCLINATION    = 97.2804
RA_OF_ASC_NODE = 217.8725
ARG_OF_PERICENTER = 59.7656
MEAN_ANOMALY   = 246.8427

EPHEMERIS_TYPE = 0
CLASSIFICATION_TYPE = U
NORAD_CAT_ID   = 68296
ELEMENT_SET_NO = 999
REV_AT_EPOCH   = 315
BSTAR          = -.61639129E-2
MEAN_MOTION_DOT = -.128654E-1
MEAN_MOTION_DDOT = 0

CCSDS_OMM_VERS = 2.0
CREATION_DATE  = 
ORIGINATOR     = 

OBJECT_NAME    = STARLINK-37115
OBJECT_ID      = 2026-057D
CENTER_NAME    = EARTH
REF_FRAME      = TEME
TIME_SYSTEM    = UTC
MEAN_ELEMENT_THEORY = SGP/SGP4

EPOCH          = 2026-04-04T06:00:02.000160
MEAN_MOTION    = 15.85235220
ECCENTRICITY   = .00012187
INCLINATION    = 97.2802
RA_OF_ASC_NODE = 217.8696
ARG_OF_PERICENTER = 66.4118
MEAN_ANOMALY   = 236.0914

EPHEMERIS_TYPE = 0
CLASSIFICATION_TYPE = U
NORAD_CAT_ID   = 68297
ELEMENT_SET_NO = 999
REV_AT_EPOCH   = 315
BSTAR          = -.61614142E-2
MEAN_MOTION_DOT = -.1283262E-1
MEAN_MOTION_DDOT = 0

CCSDS_OMM_VERS = 2.0
CREATION_DATE  = 
ORIGINATOR     = 

OBJECT_NAME    = STARLINK-36355
OBJECT_ID      = 2026-057E
CENTER_NAME    = EARTH
REF_FRAME      = TEME
TIME_SYSTEM    = UTC
MEAN_ELEMENT_THEORY = SGP/SGP4

EPOCH          = 2026-04-04T06:00:02.000160
MEAN_MOTION    = 15.85254041
ECCENTRICITY   = .00013422
INCLINATION    = 97.2808
RA_OF_ASC_NODE = 217.8686
ARG_OF_PERICENTER = 68.6174
MEAN_ANOMALY   = 229.4133

EPHEMERIS_TYPE = 0
CLASSIFICATION_TYPE = U
NORAD_CAT_ID   = 68298
ELEMENT_SET_NO = 999
REV_AT_EPOCH   = 342
BSTAR          = -.61229082E-2
MEAN_MOTION_DOT = -.1277272E-1
MEAN_MOTION_DDOT = 0

CCSDS_OMM_VERS = 2.0
CREATION_DATE  = 
ORIGINATOR     = 

OBJECT_NAME    = STARLINK-37118
OBJECT_ID      = 2026-057F
CENTER_NAME    = EARTH
REF_FRAME      = TEME
TIME_SYSTEM    = UTC
MEAN_ELEMENT_THEORY = SGP/SGP4

EPOCH          = 2026-04-04T06:00:02.000160
MEAN_MOTION    = 15.85306157
ECCENTRICITY   = .00014389
INCLINATION    = 97.2795
RA_OF_ASC_NODE = 217.8753
ARG_OF_PERICENTER = 59.7806
MEAN_ANOMALY   = 255.4882

EPHEMERIS_TYPE = 0
CLASSIFICATION_TYPE = U
NORAD_CAT_ID   = 68299
ELEMENT_SET_NO = 999
REV_AT_EPOCH   = 326
BSTAR          = -.62400389E-2
MEAN_MOTION_DOT = -.1301797E-1
MEAN_MOTION_DDOT = 0

CCSDS_OMM_VERS = 2.0
CREATION_DATE  = 
ORIGINATOR     = 

OBJECT_NAME    = STARLINK-36875
OBJECT_ID      = 2026-057G
CENTER_NAME    = EARTH
REF_FRAME      = TEME
TIME_SYSTEM    = UTC
MEAN_ELEMENT_THEORY = SGP/SGP4

EPOCH          = 2026-04-04T06:00:02.000160
MEAN_MOTION    = 15.85256358
ECCENTRICITY   = .00014675
INCLINATION    = 97.2800
RA_OF_ASC_NODE = 217.8737
ARG_OF_PERICENTER = 56.8449
MEAN_ANOMALY   = 254.3160

EPHEMERIS_TYPE = 0
CLASSIFICATION_TYPE = U
NORAD_CAT_ID   = 68300
ELEMENT_SET_NO = 999
REV_AT_EPOCH   = 332
BSTAR          = -.62137683E-2
MEAN_MOTION_DOT = -.1294222E-1
MEAN_MOTION_DDOT = 0

CCSDS_OMM_VERS = 2.0
CREATION_DATE  = 
ORIGINATOR     = 

OBJECT_NAME    = STARLINK-37099
OBJECT_ID      = 2026-057H
CENTER_NAME    = EARTH
REF_FRAME      = TEME
TIME_SYSTEM    = UTC
MEAN_ELEMENT_THEORY = SGP/SGP4

EPOCH          = 2026-04-04T06:00:02.000160
MEAN_MOTION    = 15.85265711
ECCENTRICITY   = .0001476
INCLINATION    = 97.2790
RA_OF_ASC_NODE = 217.8776
ARG_OF_PERICENTER = 59.3473
MEAN_ANOMALY   = 260.5791

EPHEMERIS_TYPE = 0
CLASSIFICATION_TYPE = U
NORAD_CAT_ID   = 68301
ELEMENT_SET_NO = 999
REV_AT_EPOCH   = 315
BSTAR          = -.62783818E-2
MEAN_MOTION_DOT = -.1306616E-1
MEAN_MOTION_DDOT = 0

CCSDS_OMM_VERS = 2.0
CREATION_DATE  = 
ORIGINATOR     = 

OBJECT_NAME    = STARLINK-37007
OBJECT_ID      = 2026-057J
CENTER_NAME    = EARTH
REF_FRAME      = TEME
TIME_SYSTEM    = UTC
MEAN_ELEMENT_THEORY = SGP/SGP4

EPOCH          = 2026-04-04T06:00:02.000160
MEAN_MOTION    = 15.85220480
ECCENTRICITY   = .00012891
INCLINATION    = 97.2781
RA_OF_ASC_NODE = 217.8808
ARG_OF_PERICENTER = 63.0600
MEAN_ANOMALY   = 266.1429

EPHEMERIS_TYPE = 0
CLASSIFICATION_TYPE = U
NORAD_CAT_ID   = 68302
ELEMENT_SET_NO = 999
REV_AT_EPOCH   = 337
BSTAR          = -.65761505E-2
MEAN_MOTION_DOT = -.1358177E-1
MEAN_MOTION_DDOT = 0

CCSDS_OMM_VERS = 2.0
CREATION_DATE  = 
ORIGINATOR     = 

OBJECT_NAME    = STARLINK-36300
OBJECT_ID      = 2026-057K
CENTER_NAME    = EARTH
REF_FRAME      = TEME
TIME_SYSTEM    = UTC
MEAN_ELEMENT_THEORY = SGP/SGP4

EPOCH          = 2026-04-04T06:00:02.000160
MEAN_MOTION    = 15.85217896
ECCENTRICITY   = .0001295
INCLINATION    = 97.2785
RA_OF_ASC_NODE = 217.8789
ARG_OF_PERICENTER = 65.3900
MEAN_ANOMALY   = 259.3110

EPHEMERIS_TYPE = 0
CLASSIFICATION_TYPE = U
NORAD_CAT_ID   = 68303
ELEMENT_SET_NO = 999
REV_AT_EPOCH   = 342
BSTAR          = -.63706289E-2
MEAN_MOTION_DOT = -.1320696E-1
MEAN_MOTION_DDOT = 0

CCSDS_OMM_VERS = 2.0
CREATION_DATE  = 
ORIGINATOR     = 

OBJECT_NAME    = STARLINK-36849
OBJECT_ID      = 2026-057L
CENTER_NAME    = EARTH
REF_FRAME      = TEME
TIME_SYSTEM    = UTC
MEAN_ELEMENT_THEORY = SGP/SGP4

EPOCH          = 2026-04-04T06:00:02.000160
MEAN_MOTION    = 15.85283065
ECCENTRICITY   = .00014017
INCLINATION    = 97.2781
RA_OF_ASC_NODE = 217.8829
ARG_OF_PERICENTER = 53.5966
MEAN_ANOMALY   = 279.7398

EPHEMERIS_TYPE = 0
CLASSIFICATION_TYPE = U
NORAD_CAT_ID   = 68304
ELEMENT_SET_NO = 999
REV_AT_EPOCH   = 332
BSTAR          = -.67616377E-2
MEAN_MOTION_DOT = -.1395367E-1
MEAN_MOTION_DDOT = 0

CCSDS_OMM_VERS = 2.0
CREATION_DATE  = 
ORIGINATOR     = 

OBJECT_NAME    = STARLINK-36277
OBJECT_ID      = 2026-057M
CENTER_NAME    = EARTH
REF_FRAME      = TEME
TIME_SYSTEM    = UTC
MEAN_ELEMENT_THEORY = SGP/SGP4

EPOCH          = 2026-04-04T06:00:02.000160
MEAN_MOTION    = 15.85308158
ECCENTRICITY   = .00013515
INCLINATION    = 97.2769
RA_OF_ASC_NODE = 217.8856
ARG_OF_PERICENTER = 56.8267
MEAN_ANOMALY   = 285.2641

EPHEMERIS_TYPE = 0
CLASSIFICATION_TYPE = U
NORAD_CAT_ID   = 68305
ELEMENT_SET_NO = 999
REV_AT_EPOCH   = 348
BSTAR          = -.71492403E-2
MEAN_MOTION_DOT = -.1496132E-1
MEAN_MOTION_DDOT = 0

CCSDS_OMM_VERS = 2.0
CREATION_DATE  = 
ORIGINATOR     = 

OBJECT_NAME    = STARLINK-36307
OBJECT_ID      = 2026-057N
CENTER_NAME    = EARTH
REF_FRAME      = TEME
TIME_SYSTEM    = UTC
MEAN_ELEMENT_THEORY = SGP/SGP4

EPOCH          = 2026-04-04T06:00:02.000160
MEAN_MOTION    = 15.85342092
ECCENTRICITY   = .00013379
INCLINATION    = 97.2778
RA_OF_ASC_NODE = 217.8846
ARG_OF_PERICENTER = 57.8856
MEAN_ANOMALY   = 279.5671

EPHEMERIS_TYPE = 0
CLASSIFICATION_TYPE = U
NORAD_CAT_ID   = 68306
ELEMENT_SET_NO = 999
REV_AT_EPOCH   = 342
BSTAR          = -.68966215E-2
MEAN_MOTION_DOT = -.1423062E-1
MEAN_MOTION_DDOT = 0

CCSDS_OMM_VERS = 2.0
CREATION_DATE  = 
ORIGINATOR     = 

OBJECT_NAME    = STARLINK-36264
OBJECT_ID      = 2026-057P
CENTER_NAME    = EARTH
REF_FRAME      = TEME
TIME_SYSTEM    = UTC
MEAN_ELEMENT_THEORY = SGP/SGP4

EPOCH          = 2026-04-04T06:00:02.000160
MEAN_MOTION    = 15.85220122
ECCENTRICITY   = .00012167
INCLINATION    = 97.2770
RA_OF_ASC_NODE = 217.8882
ARG_OF_PERICENTER = 54.3710
MEAN_ANOMALY   = 292.4901

EPHEMERIS_TYPE = 0
CLASSIFICATION_TYPE = U
NORAD_CAT_ID   = 68307
ELEMENT_SET_NO = 999
REV_AT_EPOCH   = 348
BSTAR          = -.72305334E-2
MEAN_MOTION_DOT = -.1505393E-1
MEAN_MOTION_DDOT = 0

CCSDS_OMM_VERS = 2.0
CREATION_DATE  = 
ORIGINATOR     = 

OBJECT_NAME    = STARLINK-37138
OBJECT_ID      = 2026-057Q
CENTER_NAME    = EARTH
REF_FRAME      = TEME
TIME_SYSTEM    = UTC
MEAN_ELEMENT_THEORY = SGP/SGP4

EPOCH          = 2026-04-04T06:00:02.000160
MEAN_MOTION    = 15.85290173
ECCENTRICITY   = .00014145
INCLINATION    = 97.2762
RA_OF_ASC_NODE = 217.8886
ARG_OF_PERICENTER = 57.7934
MEAN_ANOMALY   = 293.0313

EPHEMERIS_TYPE = 0
CLASSIFICATION_TYPE = U
NORAD_CAT_ID   = 68308
ELEMENT_SET_NO = 999
REV_AT_EPOCH   = 315
BSTAR          = -.72212962E-2
MEAN_MOTION_DOT = -.1508353E-1
MEAN_MOTION_DDOT = 0

CCSDS_OMM_VERS = 2.0
CREATION_DATE  = 
ORIGINATOR     = 

OBJECT_NAME    = STARLINK-37149
OBJECT_ID      = 2026-057R
CENTER_NAME    = EARTH
REF_FRAME      = TEME
TIME_SYSTEM    = UTC
MEAN_ELEMENT_THEORY = SGP/SGP4

EPOCH          = 2026-04-04T06:00:02.000160
MEAN_MOTION    = 15.85301498
ECCENTRICITY   = .00014937
INCLINATION    = 97.2756
RA_OF_ASC_NODE = 217.8901
ARG_OF_PERICENTER = 53.7557
MEAN_ANOMALY   = 301.3491

EPHEMERIS_TYPE = 0
CLASSIFICATION_TYPE = U
NORAD_CAT_ID   = 68309
ELEMENT_SET_NO = 999
REV_AT_EPOCH   = 326
BSTAR          = -.72672839E-2
MEAN_MOTION_DOT = -.1517637E-1
MEAN_MOTION_DDOT = 0

CCSDS_OMM_VERS = 2.0
CREATION_DATE  = 
ORIGINATOR     = 

OBJECT_NAME    = STARLINK-37148
OBJECT_ID      = 2026-057S
CENTER_NAME    = EARTH
REF_FRAME      = TEME
TIME_SYSTEM    = UTC
MEAN_ELEMENT_THEORY = SGP/SGP4

EPOCH          = 2026-04-04T06:00:02.000160
MEAN_MOTION    = 15.85291474
ECCENTRICITY   = .00015213
INCLINATION    = 97.2752
RA_OF_ASC_NODE = 217.8940
ARG_OF_PERICENTER = 55.4616
MEAN_ANOMALY   = 308.3370

EPHEMERIS_TYPE = 0
CLASSIFICATION_TYPE = U
NORAD_CAT_ID   = 68310
ELEMENT_SET_NO = 999
REV_AT_EPOCH   = 337
BSTAR          = -.734544E-2
MEAN_MOTION_DOT = -.1531404E-1
MEAN_MOTION_DDOT = 0

